{"type": "FeatureCollection", "features": [ {"type": "Feature", "properties": {"norad_id": 52984, "name": "COSMOS 2557 (706K)", "group": "gnss", "lat": -13.03768625895183, "lon": 147.767275881654, "alt_km": 19127.088070808466, "timestamp": "2025-12-02T17:49:12.271525+00:00", "meta": {"OBJECT_NAME": "COSMOS 2557 (706K)", "OBJECT_ID": "2022-075A", "EPOCH": "2025-12-01T01:56:28.375008", "MEAN_MOTION": 2.13101767, "ECCENTRICITY": 0.00137561, "INCLINATION": 64.4163, "RA_OF_ASC_NODE": 321.4618, "ARG_OF_PERICENTER": 276.3647, "MEAN_ANOMALY": 83.4921, "EPHEMERIS_TYPE": 0, "CLASSIFICATION_TYPE": "U", "NORAD_CAT_ID": 52984, "ELEMENT_SET_NO": 999, "REV_AT_EPOCH": 2649, "BSTAR": 0, "MEAN_MOTION_DOT": -2.7e-07, "MEAN_MOTION_DDOT": 0}, "tle": {"line1": "1 52984U 22075A   25335.08088397 -.00000027  00000+0  00000+0 0  9993", "line2": "2 52984  64.4163 321.4618 0013756 276.3647  83.4921  2.13101767 26492"}}, "geometry": {"type": "Point", "coordinates": [147.767275881654, -13.03768625895183]}}, {"type": "Feature", "properties": {"norad_id": 54031, "name": "COSMOS 2559 (707K)", "group": "gnss", "lat": -23.68498520452051, "lon": -50.662930183040835, "alt_km": 19157.16237723509, "timestamp": "2025-12-02T17:49:12.271544+00:00", "meta": {"OBJECT_NAME": "COSMOS 2559 (707K)", "OBJECT_ID": "2022-130A", "EPOCH": "2025-12-02T07:23:14.790048", "MEAN_MOTION": 2.1310125, "ECCENTRICITY": 0.0012076, "INCLINATION": 64.3878, "RA_OF_ASC_NODE": 321.5084, "ARG_OF_PERICENTER": 192.7828, "MEAN_ANOMALY": 167.1956, "EPHEMERIS_TYPE": 0, "CLASSIFICATION_TYPE": "U", "NORAD_CAT_ID": 54031, "ELEMENT_SET_NO": 999, "REV_AT_EPOCH": 2449, "BSTAR": 0, "MEAN_MOTION_DOT": -3.6e-07, "MEAN_MOTION_DDOT": 0}, "tle": {"line1": "1 54031U 22130A   25336.30781007 -.00000036  00000+0  00000+0 0  9994", "line2": "2 54031  64.3878 321.5084 0012076 192.7828 167.1956  2.13101250 24496"}}, "geometry": {"type": "Point", "coordinates": [-50.662930183040835, -23.68498520452051]}}, {"type": "Feature", "properties": {"norad_id": 54377, "name": "COSMOS 2564 (761)", "group": "gnss", "lat": 64.58502207569995, "lon": -64.1377160243179, "alt_km": 19131.972505534966, "timestamp": "2025-12-02T17:49:12.271561+00:00", "meta": {"OBJECT_NAME": "COSMOS 2564 (761)", "OBJECT_ID": "2022-161A", "EPOCH": "2025-12-01T05:07:31.965888", "MEAN_MOTION": 2.13101951, "ECCENTRICITY": 0.0008738, "INCLINATION": 64.7376, "RA_OF_ASC_NODE": 199.2819, "ARG_OF_PERICENTER": 206.5464, "MEAN_ANOMALY": 153.5009, "EPHEMERIS_TYPE": 0, "CLASSIFICATION_TYPE": "U", "NORAD_CAT_ID": 54377, "ELEMENT_SET_NO": 999, "REV_AT_EPOCH": 2341, "BSTAR": 0, "MEAN_MOTION_DOT": 1e-06, "MEAN_MOTION_DDOT": 0}, "tle": {"line1": "1 54377U 22161A   25335.21356442  .00000100  00000+0  00000+0 0  9992", "line2": "2 54377  64.7376 199.2819 0008738 206.5464 153.5009  2.13101951 23419"}}, "geometry": {"type": "Point", "coordinates": [-64.1377160243179, 64.58502207569995]}}, {"type": "Feature", "properties": {"norad_id": 55268, "name": "GPS BIII-6  (PRN 28)", "group": "gnss", "lat": 12.28708286406467, "lon": -32.51446908884891, "alt_km": 20190.421063034104, "timestamp": "2025-12-02T17:49:12.271578+00:00", "meta": {"OBJECT_NAME": "GPS BIII-6  (PRN 28)", "OBJECT_ID": "2023-009A", "EPOCH": "2025-11-30T00:32:38.315616", "MEAN_MOTION": 2.00556632, "ECCENTRICITY": 0.00034826, "INCLINATION": 55.1054, "RA_OF_ASC_NODE": 156.3454, "ARG_OF_PERICENTER": 359.6796, "MEAN_ANOMALY": 1.4566, "EPHEMERIS_TYPE": 0, "CLASSIFICATION_TYPE": "U", "NORAD_CAT_ID": 55268, "ELEMENT_SET_NO": 999, "REV_AT_EPOCH": 2125, "BSTAR": 0, "MEAN_MOTION_DOT": 1.29e-06, "MEAN_MOTION_DDOT": 0}, "tle": {"line1": "1 55268U 23009A   25334.02266569  .00000129  00000+0  00000+0 0  9993", "line2": "2 55268  55.1054 156.3454 0003482 359.6796   1.4566  2.00556632 21259"}}, "geometry": {"type": "Point", "coordinates": [-32.51446908884891, 12.28708286406467]}}, {"type": "Feature", "properties": {"norad_id": 56564, "name": "BEIDOU-3 G4 (C62)", "group": "gnss", "lat": -0.26326875910474884, "lon": 139.15888750512983, "alt_km": 35774.874993854384, "timestamp": "2025-12-02T17:49:12.271596+00:00", "meta": {"OBJECT_NAME": "BEIDOU-3 G4 (C62)", "OBJECT_ID": "2023-066A", "EPOCH": "2025-12-02T10:54:38.635776", "MEAN_MOTION": 1.00271041, "ECCENTRICITY": 0.0003393, "INCLINATION": 0.8391, "RA_OF_ASC_NODE": 301.148, "ARG_OF_PERICENTER": 234.296, "MEAN_ANOMALY": 219.8462, "EPHEMERIS_TYPE": 0, "CLASSIFICATION_TYPE": "U", "NORAD_CAT_ID": 56564, "ELEMENT_SET_NO": 999, "REV_AT_EPOCH": 942, "BSTAR": 0, "MEAN_MOTION_DOT": -9e-07, "MEAN_MOTION_DDOT": 0}, "tle": {"line1": "1 56564U 23066A   25336.45461384 -.00000090  00000+0  00000+0 0  9995", "line2": "2 56564   0.8391 301.1480 0003393 234.2960 219.8462  1.00271041  9423"}}, "geometry": {"type": "Point", "coordinates": [139.15888750512983, -0.26326875910474884]}}, {"type": "Feature", "properties": {"norad_id": 56759, "name": "NVS-01 (IRNSS-1J)", "group": "gnss", "lat": -1.5707079117243323, "lon": 108.58262187393576, "alt_km": 35818.52709992335, "timestamp": "2025-12-02T17:49:12.271614+00:00", "meta": {"OBJECT_NAME": "NVS-01 (IRNSS-1J)", "OBJECT_ID": "2023-076A", "EPOCH": "2025-12-02T07:33:08.345088", "MEAN_MOTION": 1.00267867, "ECCENTRICITY": 0.0008558, "INCLINATION": 2.6462, "RA_OF_ASC_NODE": 251.983, "ARG_OF_PERICENTER": 5.7658, "MEAN_ANOMALY": 56.5154, "EPHEMERIS_TYPE": 0, "CLASSIFICATION_TYPE": "U", "NORAD_CAT_ID": 56759, "ELEMENT_SET_NO": 999, "REV_AT_EPOCH": 914, "BSTAR": 0, "MEAN_MOTION_DOT": -3.13e-06, "MEAN_MOTION_DDOT": 0}, "tle": {"line1": "1 56759U 23076A   25336.31467992 -.00000313  00000+0  00000+0 0  9996", "line2": "2 56759   2.6462 251.9830 0008558   5.7658  56.5154  1.00267867  9146"}}, "geometry": {"type": "Point", "coordinates": [108.58262187393576, -1.5707079117243323]}}, {"type": "Feature", "properties": {"norad_id": 57517, "name": "COSMOS 2569 (703K)", "group": "gnss", "lat": 64.20218369890921, "lon": 152.11518224389778, "alt_km": 19146.24672088469, "timestamp": "2025-12-02T17:49:12.271632+00:00", "meta": {"OBJECT_NAME": "COSMOS 2569 (703K)", "OBJECT_ID": "2023-114A", "EPOCH": "2025-12-01T05:26:50.828352", "MEAN_MOTION": 2.13103848, "ECCENTRICITY": 0.0010073, "INCLINATION": 65.188, "RA_OF_ASC_NODE": 79.3026, "ARG_OF_PERICENTER": 287.0136, "MEAN_ANOMALY": 72.876, "EPHEMERIS_TYPE": 0, "CLASSIFICATION_TYPE": "U", "NORAD_CAT_ID": 57517, "ELEMENT_SET_NO": 999, "REV_AT_EPOCH": 1804, "BSTAR": 0, "MEAN_MOTION_DOT": -1.2e-07, "MEAN_MOTION_DDOT": 0}, "tle": {"line1": "1 57517U 23114A   25335.22697718 -.00000012  00000+0  00000+0 0  9998", "line2": "2 57517  65.1880  79.3026 0010073 287.0136  72.8760  2.13103848 18043"}}, "geometry": {"type": "Point", "coordinates": [152.11518224389778, 64.20218369890921]}}, {"type": "Feature", "properties": {"norad_id": 58654, "name": "BEIDOU-3 M28 (C50)", "group": "gnss", "lat": -16.639309279705476, "lon": 57.12993596384258, "alt_km": 21529.122077059365, "timestamp": "2025-12-02T17:49:12.271652+00:00", "meta": {"OBJECT_NAME": "BEIDOU-3 M28 (C50)", "OBJECT_ID": "2023-207A", "EPOCH": "2025-12-02T05:39:36.184608", "MEAN_MOTION": 1.86229563, "ECCENTRICITY": 0.0001988, "INCLINATION": 55.5754, "RA_OF_ASC_NODE": 68.9573, "ARG_OF_PERICENTER": 264.8657, "MEAN_ANOMALY": 95.1143, "EPHEMERIS_TYPE": 0, "CLASSIFICATION_TYPE": "U", "NORAD_CAT_ID": 58654, "ELEMENT_SET_NO": 999, "REV_AT_EPOCH": 1317, "BSTAR": 0, "MEAN_MOTION_DOT": -4.7e-07, "MEAN_MOTION_DDOT": 0}, "tle": {"line1": "1 58654U 23207A   25336.23583547 -.00000047  00000+0  00000+0 0  9998", "line2": "2 58654  55.5754  68.9573 0001988 264.8657  95.1143  1.86229563 13170"}}, "geometry": {"type": "Point", "coordinates": [57.12993596384258, -16.639309279705476]}}, {"type": "Feature", "properties": {"norad_id": 58655, "name": "BEIDOU-3 M26 (C48)", "group": "gnss", "lat": 48.25253611726808, "lon": -161.18189076483384, "alt_km": 21528.848478572578, "timestamp": "2025-12-02T17:49:12.271669+00:00", "meta": {"OBJECT_NAME": "BEIDOU-3 M26 (C48)", "OBJECT_ID": "2023-207B", "EPOCH": "2025-11-29T21:15:29.587968", "MEAN_MOTION": 1.86231123, "ECCENTRICITY": 0.00033719, "INCLINATION": 55.5753, "RA_OF_ASC_NODE": 69.0231, "ARG_OF_PERICENTER": 249.3814, "MEAN_ANOMALY": 110.59, "EPHEMERIS_TYPE": 0, "CLASSIFICATION_TYPE": "U", "NORAD_CAT_ID": 58655, "ELEMENT_SET_NO": 999, "REV_AT_EPOCH": 1311, "BSTAR": 0, "MEAN_MOTION_DOT": -3.1e-07, "MEAN_MOTION_DDOT": 0}, "tle": {"line1": "1 58655U 23207B   25333.88575912 -.00000031  00000+0  00000+0 0  9997", "line2": "2 58655  55.5753  69.0231 0003371 249.3814 110.5900  1.86231123 13116"}}, "geometry": {"type": "Point", "coordinates": [-161.18189076483384, 48.25253611726808]}}, {"type": "Feature", "properties": {"norad_id": 59598, "name": "GSAT0225 (GALILEO 29)", "group": "gnss", "lat": -54.31915116564829, "lon": 3.8418693397227637, "alt_km": 23228.09049214517, "timestamp": "2025-12-02T17:49:12.271686+00:00", "meta": {"OBJECT_NAME": "GSAT0225 (GALILEO 29)", "OBJECT_ID": "2024-079A", "EPOCH": "2025-12-01T03:29:20.871744", "MEAN_MOTION": 1.70474544, "ECCENTRICITY": 0.0002155, "INCLINATION": 54.9941, "RA_OF_ASC_NODE": 106.6197, "ARG_OF_PERICENTER": 171.5653, "MEAN_ANOMALY": 190.7741, "EPHEMERIS_TYPE": 0, "CLASSIFICATION_TYPE": "U", "NORAD_CAT_ID": 59598, "ELEMENT_SET_NO": 999, "REV_AT_EPOCH": 994, "BSTAR": 0, "MEAN_MOTION_DOT": 4.1e-07, "MEAN_MOTION_DDOT": 0}, "tle": {"line1": "1 59598U 24079A   25335.14538046  .00000041  00000+0  00000+0 0  9990", "line2": "2 59598  54.9941 106.6197 0002155 171.5653 190.7741  1.70474544  9948"}}, "geometry": {"type": "Point", "coordinates": [3.8418693397227637, -54.31915116564829]}}]}